{
  "type": "FeatureCollection",
  "features": [
    {
      "type": "Feature",
      "properties": {
        "norad_id": 34963,
        "name": "COSMOS 2251 DEB",
        "group": "cosmos-2251-debris",
        "lat": 31.41450277232204,
        "lon": 45.12024634416626,
        "alt_km": 748.5538983959805,
        "timestamp": "2025-12-16T19:34:24.664151+00:00",
        "meta_object_name": "COSMOS 2251 DEB",
        "meta_object_id": "1993-036AES",
        "meta_epoch": "2025-12-12T21:06:37.533312",
        "meta_mean_motion": 14.5108556,
        "meta_eccentricity": 0.00425092,
        "meta_inclination": 74.1719,
        "meta_ra_of_asc_node": 42.4827,
        "meta_arg_of_pericenter": 238.9907,
        "meta_mean_anomaly": 120.7077,
        "meta_ephemeris_type": 0,
        "meta_classification_type": "U",
        "meta_norad_cat_id": 34963,
        "meta_element_set_no": 999,
        "meta_rev_at_epoch": 86803,
        "meta_bstar": 0.0018603991,
        "meta_mean_motion_dot": 7.439e-05,
        "meta_mean_motion_ddot": 0,
        "tle_line1": "1 34963U 93036AES 25346.87960108  .00007439  00000+0  18604-2 0  9998",
        "tle_line2": "2 34963  74.1719  42.4827 0042509 238.9907 120.7077 14.51085560868035"
      },
      "geometry": {
        "type": "Point",
        "coordinates": [
          45.12024634416626,
          31.41450277232204
        ]
      }
    },
    {
      "type": "Feature",
      "properties": {
        "norad_id": 34964,
        "name": "COSMOS 2251 DEB",
        "group": "cosmos-2251-debris",
        "lat": 29.770464860437745,
        "lon": -9.78571466940966,
        "alt_km": 1040.3024084548788,
        "timestamp": "2025-12-16T19:34:24.664161+00:00",
        "meta_object_name": "COSMOS 2251 DEB",
        "meta_object_id": "1993-036AET",
        "meta_epoch": "2025-12-12T17:42:31.829760",
        "meta_mean_motion": 14.00606472,
        "meta_eccentricity": 0.0212761,
        "meta_inclination": 73.9721,
        "meta_ra_of_asc_node": 347.8441,
        "meta_arg_of_pericenter": 206.277,
        "meta_mean_anomaly": 152.7449,
        "meta_ephemeris_type": 0,
        "meta_classification_type": "U",
        "meta_norad_cat_id": 34964,
        "meta_element_set_no": 999,
        "meta_rev_at_epoch": 84478,
        "meta_bstar": 0.0019398871,
        "meta_mean_motion_dot": 3.487e-05,
        "meta_mean_motion_ddot": 0,
        "tle_line1": "1 34964U 93036AET 25346.73786840  .00003487  00000+0  19399-2 0  9994",
        "tle_line2": "2 34964  73.9721 347.8441 0212761 206.2770 152.7449 14.00606472844784"
      },
      "geometry": {
        "type": "Point",
        "coordinates": [
          -9.78571466940966,
          29.770464860437745
        ]
      }
    },
    {
      "type": "Feature",
      "properties": {
        "norad_id": 34965,
        "name": "COSMOS 2251 DEB",
        "group": "cosmos-2251-debris",
        "lat": 73.68703556156287,
        "lon": -161.44846245812428,
        "alt_km": 740.2227649214483,
        "timestamp": "2025-12-16T19:34:24.664172+00:00",
        "meta_object_name": "COSMOS 2251 DEB",
        "meta_object_id": "1993-036AEU",
        "meta_epoch": "2025-12-13T03:20:09.825504",
        "meta_mean_motion": 14.48709196,
        "meta_eccentricity": 0.00265546,
        "meta_inclination": 74.0514,
        "meta_ra_of_asc_node": 127.7194,
        "meta_arg_of_pericenter": 255.0904,
        "meta_mean_anomaly": 104.7315,
        "meta_ephemeris_type": 0,
        "meta_classification_type": "U",
        "meta_norad_cat_id": 34965,
        "meta_element_set_no": 999,
        "meta_rev_at_epoch": 87119,
        "meta_bstar": 0.00058289093,
        "meta_mean_motion_dot": 2.18e-05,
        "meta_mean_motion_ddot": 0,
        "tle_line1": "1 34965U 93036AEU 25347.13900261  .00002180  00000+0  58289-3 0  9996",
        "tle_line2": "2 34965  74.0514 127.7194 0026554 255.0904 104.7315 14.48709196871194"
      },
      "geometry": {
        "type": "Point",
        "coordinates": [
          -161.44846245812428,
          73.68703556156287
        ]
      }
    },
    {
      "type": "Feature",
      "properties": {
        "norad_id": 34967,
        "name": "COSMOS 2251 DEB",
        "group": "cosmos-2251-debris",
        "lat": -63.0759806702196,
        "lon": -148.16086478952542,
        "alt_km": 755.5720496121958,
        "timestamp": "2025-12-16T19:34:24.664183+00:00",
        "meta_object_name": "COSMOS 2251 DEB",
        "meta_object_id": "1993-036AEW",
        "meta_epoch": "2025-12-13T00:27:20.673792",
        "meta_mean_motion": 14.44269018,
        "meta_eccentricity": 0.00380101,
        "meta_inclination": 73.9933,
        "meta_ra_of_asc_node": 253.3374,
        "meta_arg_of_pericenter": 39.5345,
        "meta_mean_anomaly": 320.8573,
        "meta_ephemeris_type": 0,
        "meta_classification_type": "U",
        "meta_norad_cat_id": 34967,
        "meta_element_set_no": 999,
        "meta_rev_at_epoch": 64961,
        "meta_bstar": 0.0011451852,
        "meta_mean_motion_dot": 3.946e-05,
        "meta_mean_motion_ddot": 0,
        "tle_line1": "1 34967U 93036AEW 25347.01898928  .00003946  00000+0  11452-2 0  9992",
        "tle_line2": "2 34967  73.9933 253.3374 0038010  39.5345 320.8573 14.44269018649616"
      },
      "geometry": {
        "type": "Point",
        "coordinates": [
          -148.16086478952542,
          -63.0759806702196
        ]
      }
    },
    {
      "type": "Feature",
      "properties": {
        "norad_id": 34968,
        "name": "COSMOS 2251 DEB",
        "group": "cosmos-2251-debris",
        "lat": 9.429019395446181,
        "lon": -117.97435581165273,
        "alt_km": 636.2299174401669,
        "timestamp": "2025-12-16T19:34:24.664193+00:00",
        "meta_object_name": "COSMOS 2251 DEB",
        "meta_object_id": "1993-036AEX",
        "meta_epoch": "2025-12-14T03:22:05.329344",
        "meta_mean_motion": 14.59409619,
        "meta_eccentricity": 0.00866972,
        "meta_inclination": 74.0386,
        "meta_ra_of_asc_node": 244.3991,
        "meta_arg_of_pericenter": 4.4101,
        "meta_mean_anomaly": 355.7807,
        "meta_ephemeris_type": 0,
        "meta_classification_type": "U",
        "meta_norad_cat_id": 34968,
        "meta_element_set_no": 999,
        "meta_rev_at_epoch": 88498,
        "meta_bstar": 0.00021583388,
        "meta_mean_motion_dot": 1.045e-05,
        "meta_mean_motion_ddot": 0,
        "tle_line1": "1 34968U 93036AEX 25348.14033946  .00001045  00000+0  21583-3 0  9994",
        "tle_line2": "2 34968  74.0386 244.3991 0086697   4.4101 355.7807 14.59409619884988"
      },
      "geometry": {
        "type": "Point",
        "coordinates": [
          -117.97435581165273,
          9.429019395446181
        ]
      }
    },
    {
      "type": "Feature",
      "properties": {
        "norad_id": 34969,
        "name": "COSMOS 2251 DEB",
        "group": "cosmos-2251-debris",
        "lat": 57.60720936494515,
        "lon": 42.55740868608974,
        "alt_km": 774.6155528694953,
        "timestamp": "2025-12-16T19:34:24.664203+00:00",
        "meta_object_name": "COSMOS 2251 DEB",
        "meta_object_id": "1993-036AEY",
        "meta_epoch": "2025-12-15T18:08:26.126880",
        "meta_mean_motion": 14.32260529,
        "meta_eccentricity": 0.00734759,
        "meta_inclination": 74.0142,
        "meta_ra_of_asc_node": 17.6317,
        "meta_arg_of_pericenter": 150.1137,
        "meta_mean_anomaly": 210.4241,
        "meta_ephemeris_type": 0,
        "meta_classification_type": "U",
        "meta_norad_cat_id": 34969,
        "meta_element_set_no": 999,
        "meta_rev_at_epoch": 65180,
        "meta_bstar": 0.00024953546,
        "meta_mean_motion_dot": 6.68e-06,
        "meta_mean_motion_ddot": 0,
        "tle_line1": "1 34969U 93036AEY 25349.75585795  .00000668  00000+0  24954-3 0  9992",
        "tle_line2": "2 34969  74.0142  17.6317 0073475 150.1137 210.4241 14.32260529651808"
      },
      "geometry": {
        "type": "Point",
        "coordinates": [
          42.55740868608974,
          57.60720936494515
        ]
      }
    },
    {
      "type": "Feature",
      "properties": {
        "norad_id": 34971,
        "name": "COSMOS 2251 DEB",
        "group": "cosmos-2251-debris",
        "lat": 15.296933666570478,
        "lon": -78.23243431803063,
        "alt_km": 736.4230649630508,
        "timestamp": "2025-12-16T19:34:24.664242+00:00",
        "meta_object_name": "COSMOS 2251 DEB",
        "meta_object_id": "1993-036AFA",
        "meta_epoch": "2025-12-14T13:53:19.427712",
        "meta_mean_motion": 14.55636753,
        "meta_eccentricity": 0.00695431,
        "meta_inclination": 73.9787,
        "meta_ra_of_asc_node": 281.5121,
        "meta_arg_of_pericenter": 146.7538,
        "meta_mean_anomaly": 32.8652,
        "meta_ephemeris_type": 0,
        "meta_classification_type": "U",
        "meta_norad_cat_id": 34971,
        "meta_element_set_no": 999,
        "meta_rev_at_epoch": 66199,
        "meta_bstar": 0.00020308025,
        "meta_mean_motion_dot": 8.85e-06,
        "meta_mean_motion_ddot": 0,
        "tle_line1": "1 34971U 93036AFA 25348.57869708  .00000885  00000+0  20308-3 0  9993",
        "tle_line2": "2 34971  73.9787 281.5121 0069543 146.7538  32.8652 14.55636753661990"
      },
      "geometry": {
        "type": "Point",
        "coordinates": [
          -78.23243431803063,
          15.296933666570478
        ]
      }
    }
  ]
}